,Full Name,Address,Longitude,Latitude
0,Emily Wilson,"1234 B Street, San Mateo, CA 94402, USA",-122.4608085,37.6853795
1,Michael Davis,"567 Park Blvd, San Mateo, CA 94403, USA",-122.41002146082182,37.608968314261396
2,Ashley Johnson,"789 El Camino Real, San Mateo, CA 94404, USA",-122.41636570243759,37.628641321517286
3,Matthew Smith,"123 Ocean Ave, San Mateo, CA 94405, USA",-122.44202939084475,37.46315897911826
4,Lauren Brown,"456 Main Street, San Mateo, CA 94010, USA",-122.22665071428571,37.489689285714284
5,Nicholas Garcia,"789 Broadway, Burlingame, CA 94011, USA",-122.3610775,37.590905
6,Joshua Martinez,"567 Ralston Ave, Belmont, CA 94002, USA",-122.27401104896303,37.521968415071534
7,Elizabeth Jackson,"789 Alameda de las Pulgas, San Carlos, CA 94070, USA",-122.26826098135453,37.49627520314079
8,David Martinez,"123 Industrial Road, San Carlos, CA 94070, USA",-122.25965649295605,37.51346206354256
9,Adam Perez,"567 Beach Park Boulevard, Foster City, CA 94404, USA",-122.2709952230309,37.54630123531887
10,James Phillips,"789 Alameda de las Pulgas, San Mateo, CA 94405, USA",-122.24565164033815,37.46673919578272
11,Natalie Nelson,"123 Monte Diablo Ave, San Mateo, CA 94402, USA",-122.33049562451225,37.569146065904114
12,Madison Wilson,"789 El Camino Real, San Carlos, CA 94070, USA",-122.260186,37.507277
13,Rachel Turner,"456 Oak Ave, Redwood City, CA 94063, USA",-122.22771046153846,37.474367192307696
14,Adam Rose,"789 Main Street, Redwood City, CA 94064, USA",-122.2262205328912,37.48681406104529
15,Lauren Flores,"123 Lincoln Ave, Redwood City, CA 94061, USA",-122.22670780978088,37.47960820465492
16,Joshua Perez,"789 Edgewood Road, San Mateo, CA 94402, USA",-122.35009568620295,37.570426620380964
17,William Martinez,"456 Crystal Springs Road, San Mateo, CA 94404, USA",-122.33462716097527,37.55695049002248
18,Olivia Green,"500 2nd Ave, San Mateo, CA 94401, USA",-122.32147,37.567393
19,Ethan Brown,"401 1st Ave, San Mateo, CA 94401, USA",-122.3233152775024,37.5679225
20,Ava White,"650 Tower Rd, San Mateo, CA 94402, USA",-122.3334662,37.5140306
21,Liam Davis,"1501 Tilton Ave, San Mateo, CA 94403, USA",-122.3224826,37.572187
22,Emma Johnson,"675 Beach Park Blvd, Foster City, CA 94404, USA",-122.26766850166753,37.54718298295848
23,Sophia Anderson,"1 Tower Pl, San Mateo, CA 94404, USA",-122.398017,37.6662067
24,Jackson Lee,"860 E Hillsdale Blvd, Foster City, CA 94404, USA",-122.27932163935245,37.55318926624969
25,Mason Wilson,"600 E Hillsdale Blvd, San Mateo, CA 94403, USA",-122.28469613742108,37.54655216962372
26,Adam Miller,"1125 Chess Dr, San Mateo, CA 94404, USA",-122.27373983092598,37.56792584882475
27,Mia Perez,"1450 Fashion Island Blvd, San Mateo, CA 94404, USA",-122.28905644136809,37.555956150483205
28,Alexander Gonzalez,"1550 Fashion Island Blvd, San Mateo, CA 94404, USA",-122.28681297998983,37.557931951471524
29,Samuel Rodriguez,"555 Shell Blvd, San Mateo, CA 94404, USA",-122.27397049645673,37.55996336037646
30,Harper Turner,"120 De Anza Blvd, San Mateo, CA 94402, USA",-122.3270138,37.5219332
31,William Jones,"3031 S Delaware St, San Mateo, CA 94403, USA",-122.3041184,37.5464614
32,Ella Davis,"1150 Chess Dr, San Mateo, CA 94404, USA",-122.27252227028308,37.56737687666814
33,Michael Gonzalez,"700 Airport Blvd, San Mateo, CA 94401, USA",-122.3479717,37.5897886
34,Scarlett Perez,"2300 S Norfolk St, San Mateo, CA 94403, USA",-122.289365,37.551162
35,Benjamin Martinez,"50 E 42nd Ave, San Mateo, CA 94403, USA",-122.2891039,37.530426
36,Addison Johnson,"400 Concar Dr, San Mateo, CA 94402, USA",-122.306622,37.5539
37,Matthew Anderson,"100 De Anza Blvd, San Mateo, CA 94402, USA",-122.3376671,37.520731
38,Penelope Smith,"2500 S Norfolk St, San Mateo, CA 94403, USA",-122.2880139385221,37.54922476427384
39,Daniel Lee,"100 E 42nd Ave, San Mateo, CA 94403, USA",-122.2891039,37.530426
40,Elijah Jones,"1701 S Delaware St, San Mateo, CA 94403, USA",-122.306934,37.555221
41,Grace Brown,"1700 S Norfolk St, San Mateo, CA 94403, USA",-122.29787364146428,37.55995146782739
42,Nathan White,"1000 Chess Dr, San Mateo, CA 94404, USA",-122.2751201,37.5644683
43,Madison Green,"2051 Bridgepointe Pkwy, San Mateo, CA 94404, USA",-122.28199103831324,37.56246841609119
44,Joseph Martinez,"25 E 42nd Ave, San Mateo, CA 94403, USA",-122.2891039,37.530426
45,Mila Rodriguez,"700 Tower Rd, San Mateo, CA 94402, USA",-122.3334662,37.5140306
46,Christopher James,"1600 S Delaware St, San Mateo, CA 94403, USA",-122.309353,37.557188
47,Lillian Davis,"401 E 42nd Ave, San Mateo, CA 94403, USA",-122.2891039,37.530426
48,Evan Wilson,"1400 S El Camino Real, San Mateo, CA 94403, USA",-122.2986775,37.5379875
49,Mia Smith,"500 Concar Dr, San Mateo, CA 94402, USA",-122.30638765472929,37.55404343138587
50,Nicholas Anderson,"600 Concar Dr, San Mateo, CA 94402, USA",-122.305915,37.554309
51,Victoria Gonzalez,"400 E Hillsdale Blvd, San Mateo, CA 94403, USA",-122.2902076078189,37.543031405058855
52,Ryan Perez,"1701 Bridgepointe Pkwy, San Mateo, CA 94404, USA",-122.2814249,37.5629372
53,Charlotte Brown,"1701 Tilton Ave, San Mateo, CA 94403, USA",-122.3224826,37.572187
54,Jonathan Davis,"120 Bridgepointe Pkwy, San Mateo, CA 94404, USA",-122.2814249,37.5629372
55,Hazel Green,"1700 S Amphlett Blvd, San Mateo, CA 94402, USA",-122.3020483,37.5585798
56,William Perez,"575 E Hillsdale Blvd, San Mateo, CA 94403, USA",-122.2847685983029,37.54650141825214
57,Harper Rodriguez,"700 S El Camino Real, San Mateo, CA 94403, USA",-122.2986775,37.5379875
58,Ethan Jones,"100 E Hillsdale Blvd, San Mateo, CA 94403, USA",-122.293713,37.539449
59,Amelia White,"50 Concar Dr, San Mateo, CA 94402, USA",-122.306089,37.5543187
60,Alexander Robinson,"1601 S Delaware St, San Mateo, CA 94403, USA",-122.309196,37.557296
61,Isabella Smith,"200 Bridgepointe Pkwy, San Mateo, CA 94404, USA",-122.2814249,37.5629372
62,Owen Wilson,"1750 S Amphlett Blvd, San Mateo, CA 94402, USA",-122.30023107043333,37.55659701799542
63,Scarlett Gonzalez,"500 S El Camino Real, San Mateo, CA 94403, USA",-122.2986775,37.5379875
64,Benjamin Davis,"401 S Delaware St, San Mateo, CA 94403, USA",-122.319044,37.566321
65,Abigail Martinez,"1700 Tilton Ave, San Mateo, CA 94403, USA",-122.3224826,37.572187
66,Jackson Brown,"600 Tower Rd, San Mateo, CA 94402, USA",-122.3334662,37.5140306
67,Isabella Perez,"1700 Bridgepointe Cir, San Mateo, CA 94404, USA",-122.2815636,37.5628931
